STARLINK-36967          
1 68013U 26039AD  26076.25002315 -.01839783  00000+0 -26752-1 0  9990
2 68013  43.0000   8.9528 0001191 269.7164 265.1862 15.58186600  4099
STARLINK-36985          
1 68014U 26039AE  26076.25002315 -.01864353  00000+0 -13743-1 0  9998
2 68014  43.0002   8.3622 0001473 271.6747 140.4406 15.75320244  4095
STARLINK-36335          
1 68015U 26040A   26076.25002315 -.01274192  00000+0 -58459-2 0  9991
2 68015  97.2705  25.0315 0001262 109.1685 228.8400 15.86151713  3598
STARLINK-36923          
1 68016U 26040B   26076.25002315 -.01286708  00000+0 -59057-2 0  9993
2 68016  97.2706  25.0360 0001198  93.1028 253.7277 15.86170196  3642
STARLINK-36568          
1 68017U 26040C   26076.25002315 -.01300939  00000+0 -59708-2 0  9990
2 68017  97.2704  25.0375 0001263 103.8830 247.2342 15.86199671  3640
STARLINK-36930          
1 68018U 26040D   26076.25002315 -.01282238  00000+0 -58842-2 0  9990
2 68018  97.2702  25.0336 0001332 109.8819 232.5288 15.86162677  3648
STARLINK-36921          
1 68019U 26040E   26076.25002315 -.01347113  00000+0 -61818-2 0  9992
2 68019  97.2711  25.0420 0001384 109.3965 250.0210 15.86298327  3649
STARLINK-36928          
1 68020U 26040F   26076.25002315 -.01311168  00000+0 -60041-2 0  9992
2 68020  97.2703  25.0386 0001239  97.5945 257.4746 15.86267893  3647
STARLINK-36858          
1 68021U 26040G   26075.39301289 -.00540492  10644-3 -95967-3 0  9997
2 68021  97.2754  24.2224 0000506 199.7707 160.3553 16.01839454  2411
STARLINK-36916          
1 68022U 26040H   26076.25002315 -.01417833  00000+0 -65393-2 0  9995
2 68022  97.2703  25.0450 0001285 106.6658 261.4365 15.86346968  3648
STARLINK-36871          
1 68023U 26040J   26076.25002315 -.01448880  00000+0 -66969-2 0  9992
2 68023  97.2702  25.0460 0001663  85.0770 287.3870 15.86365031  3644
STARLINK-36891          
1 68024U 26040K   26076.25002315 -.01445450  00000+0 -67059-2 0  9994
2 68024  97.2702  25.0484 0001293  95.4079 281.8433 15.86287144  3649
