CCSDS_OMM_VERS = 2.0
CREATION_DATE  = 
ORIGINATOR     = 

OBJECT_NAME    = STARLINK-36967
OBJECT_ID      = 2026-039AD
CENTER_NAME    = EARTH
REF_FRAME      = TEME
TIME_SYSTEM    = UTC
MEAN_ELEMENT_THEORY = SGP/SGP4

EPOCH          = 2026-03-17T06:00:02.000160
MEAN_MOTION    = 15.58186600
ECCENTRICITY   = .00011914
INCLINATION    = 43.0000
RA_OF_ASC_NODE = 8.9528
ARG_OF_PERICENTER = 269.7164
MEAN_ANOMALY   = 265.1862

EPHEMERIS_TYPE = 0
CLASSIFICATION_TYPE = U
NORAD_CAT_ID   = 68013
ELEMENT_SET_NO = 999
REV_AT_EPOCH   = 409
BSTAR          = -.26751812E-1
MEAN_MOTION_DOT = -.1839783E-1
MEAN_MOTION_DDOT = 0

CCSDS_OMM_VERS = 2.0
CREATION_DATE  = 
ORIGINATOR     = 

OBJECT_NAME    = STARLINK-36985
OBJECT_ID      = 2026-039AE
CENTER_NAME    = EARTH
REF_FRAME      = TEME
TIME_SYSTEM    = UTC
MEAN_ELEMENT_THEORY = SGP/SGP4

EPOCH          = 2026-03-17T06:00:02.000160
MEAN_MOTION    = 15.75320244
ECCENTRICITY   = .00014731
INCLINATION    = 43.0002
RA_OF_ASC_NODE = 8.3622
ARG_OF_PERICENTER = 271.6747
MEAN_ANOMALY   = 140.4406

EPHEMERIS_TYPE = 0
CLASSIFICATION_TYPE = U
NORAD_CAT_ID   = 68014
ELEMENT_SET_NO = 999
REV_AT_EPOCH   = 409
BSTAR          = -.13742545E-1
MEAN_MOTION_DOT = -.1864353E-1
MEAN_MOTION_DDOT = 0

CCSDS_OMM_VERS = 2.0
CREATION_DATE  = 
ORIGINATOR     = 

OBJECT_NAME    = STARLINK-36335
OBJECT_ID      = 2026-040A
CENTER_NAME    = EARTH
REF_FRAME      = TEME
TIME_SYSTEM    = UTC
MEAN_ELEMENT_THEORY = SGP/SGP4

EPOCH          = 2026-03-17T06:00:02.000160
MEAN_MOTION    = 15.86151713
ECCENTRICITY   = .00012629
INCLINATION    = 97.2705
RA_OF_ASC_NODE = 25.0315
ARG_OF_PERICENTER = 109.1685
MEAN_ANOMALY   = 228.8400

EPHEMERIS_TYPE = 0
CLASSIFICATION_TYPE = U
NORAD_CAT_ID   = 68015
ELEMENT_SET_NO = 999
REV_AT_EPOCH   = 359
BSTAR          = -.58458632E-2
MEAN_MOTION_DOT = -.1274192E-1
MEAN_MOTION_DDOT = 0

CCSDS_OMM_VERS = 2.0
CREATION_DATE  = 
ORIGINATOR     = 

OBJECT_NAME    = STARLINK-36923
OBJECT_ID      = 2026-040B
CENTER_NAME    = EARTH
REF_FRAME      = TEME
TIME_SYSTEM    = UTC
MEAN_ELEMENT_THEORY = SGP/SGP4

EPOCH          = 2026-03-17T06:00:02.000160
MEAN_MOTION    = 15.86170196
ECCENTRICITY   = .0001198
INCLINATION    = 97.2706
RA_OF_ASC_NODE = 25.0360
ARG_OF_PERICENTER = 93.1028
MEAN_ANOMALY   = 253.7277

EPHEMERIS_TYPE = 0
CLASSIFICATION_TYPE = U
NORAD_CAT_ID   = 68016
ELEMENT_SET_NO = 999
REV_AT_EPOCH   = 364
BSTAR          = -.59056675E-2
MEAN_MOTION_DOT = -.1286708E-1
MEAN_MOTION_DDOT = 0

CCSDS_OMM_VERS = 2.0
CREATION_DATE  = 
ORIGINATOR     = 

OBJECT_NAME    = STARLINK-36568
OBJECT_ID      = 2026-040C
CENTER_NAME    = EARTH
REF_FRAME      = TEME
TIME_SYSTEM    = UTC
MEAN_ELEMENT_THEORY = SGP/SGP4

EPOCH          = 2026-03-17T06:00:02.000160
MEAN_MOTION    = 15.86199671
ECCENTRICITY   = .00012639
INCLINATION    = 97.2704
RA_OF_ASC_NODE = 25.0375
ARG_OF_PERICENTER = 103.8830
MEAN_ANOMALY   = 247.2342

EPHEMERIS_TYPE = 0
CLASSIFICATION_TYPE = U
NORAD_CAT_ID   = 68017
ELEMENT_SET_NO = 999
REV_AT_EPOCH   = 364
BSTAR          = -.59708193E-2
MEAN_MOTION_DOT = -.1300939E-1
MEAN_MOTION_DDOT = 0

CCSDS_OMM_VERS = 2.0
CREATION_DATE  = 
ORIGINATOR     = 

OBJECT_NAME    = STARLINK-36930
OBJECT_ID      = 2026-040D
CENTER_NAME    = EARTH
REF_FRAME      = TEME
TIME_SYSTEM    = UTC
MEAN_ELEMENT_THEORY = SGP/SGP4

EPOCH          = 2026-03-17T06:00:02.000160
MEAN_MOTION    = 15.86162677
ECCENTRICITY   = .00013321
INCLINATION    = 97.2702
RA_OF_ASC_NODE = 25.0336
ARG_OF_PERICENTER = 109.8819
MEAN_ANOMALY   = 232.5288

EPHEMERIS_TYPE = 0
CLASSIFICATION_TYPE = U
NORAD_CAT_ID   = 68018
ELEMENT_SET_NO = 999
REV_AT_EPOCH   = 364
BSTAR          = -.58841974E-2
MEAN_MOTION_DOT = -.1282238E-1
MEAN_MOTION_DDOT = 0

CCSDS_OMM_VERS = 2.0
CREATION_DATE  = 
ORIGINATOR     = 

OBJECT_NAME    = STARLINK-36921
OBJECT_ID      = 2026-040E
CENTER_NAME    = EARTH
REF_FRAME      = TEME
TIME_SYSTEM    = UTC
MEAN_ELEMENT_THEORY = SGP/SGP4

EPOCH          = 2026-03-17T06:00:02.000160
MEAN_MOTION    = 15.86298327
ECCENTRICITY   = .00013847
INCLINATION    = 97.2711
RA_OF_ASC_NODE = 25.0420
ARG_OF_PERICENTER = 109.3965
MEAN_ANOMALY   = 250.0210

EPHEMERIS_TYPE = 0
CLASSIFICATION_TYPE = U
NORAD_CAT_ID   = 68019
ELEMENT_SET_NO = 999
REV_AT_EPOCH   = 364
BSTAR          = -.61817632E-2
MEAN_MOTION_DOT = -.1347113E-1
MEAN_MOTION_DDOT = 0

CCSDS_OMM_VERS = 2.0
CREATION_DATE  = 
ORIGINATOR     = 

OBJECT_NAME    = STARLINK-36928
OBJECT_ID      = 2026-040F
CENTER_NAME    = EARTH
REF_FRAME      = TEME
TIME_SYSTEM    = UTC
MEAN_ELEMENT_THEORY = SGP/SGP4

EPOCH          = 2026-03-17T06:00:02.000160
MEAN_MOTION    = 15.86267893
ECCENTRICITY   = .00012393
INCLINATION    = 97.2703
RA_OF_ASC_NODE = 25.0386
ARG_OF_PERICENTER = 97.5945
MEAN_ANOMALY   = 257.4746

EPHEMERIS_TYPE = 0
CLASSIFICATION_TYPE = U
NORAD_CAT_ID   = 68020
ELEMENT_SET_NO = 999
REV_AT_EPOCH   = 364
BSTAR          = -.60040856E-2
MEAN_MOTION_DOT = -.1311168E-1
MEAN_MOTION_DDOT = 0

CCSDS_OMM_VERS = 2.0
CREATION_DATE  = 
ORIGINATOR     = 

OBJECT_NAME    = STARLINK-36858
OBJECT_ID      = 2026-040G
CENTER_NAME    = EARTH
REF_FRAME      = TEME
TIME_SYSTEM    = UTC
MEAN_ELEMENT_THEORY = SGP/SGP4

EPOCH          = 2026-03-16T09:25:56.313696
MEAN_MOTION    = 16.01839454
ECCENTRICITY   = .00005064
INCLINATION    = 97.2754
RA_OF_ASC_NODE = 24.2224
ARG_OF_PERICENTER = 199.7707
MEAN_ANOMALY   = 160.3553

EPHEMERIS_TYPE = 0
CLASSIFICATION_TYPE = U
NORAD_CAT_ID   = 68021
ELEMENT_SET_NO = 999
REV_AT_EPOCH   = 241
BSTAR          = -.95967462E-3
MEAN_MOTION_DOT = -.540492E-2
MEAN_MOTION_DDOT = .1064407E-3

CCSDS_OMM_VERS = 2.0
CREATION_DATE  = 
ORIGINATOR     = 

OBJECT_NAME    = STARLINK-36916
OBJECT_ID      = 2026-040H
CENTER_NAME    = EARTH
REF_FRAME      = TEME
TIME_SYSTEM    = UTC
MEAN_ELEMENT_THEORY = SGP/SGP4

EPOCH          = 2026-03-17T06:00:02.000160
MEAN_MOTION    = 15.86346968
ECCENTRICITY   = .00012853
INCLINATION    = 97.2703
RA_OF_ASC_NODE = 25.0450
ARG_OF_PERICENTER = 106.6658
MEAN_ANOMALY   = 261.4365

EPHEMERIS_TYPE = 0
CLASSIFICATION_TYPE = U
NORAD_CAT_ID   = 68022
ELEMENT_SET_NO = 999
REV_AT_EPOCH   = 364
BSTAR          = -.65393114E-2
MEAN_MOTION_DOT = -.1417833E-1
MEAN_MOTION_DDOT = 0

CCSDS_OMM_VERS = 2.0
CREATION_DATE  = 
ORIGINATOR     = 

OBJECT_NAME    = STARLINK-36871
OBJECT_ID      = 2026-040J
CENTER_NAME    = EARTH
REF_FRAME      = TEME
TIME_SYSTEM    = UTC
MEAN_ELEMENT_THEORY = SGP/SGP4

EPOCH          = 2026-03-17T06:00:02.000160
MEAN_MOTION    = 15.86365031
ECCENTRICITY   = .00016638
INCLINATION    = 97.2702
RA_OF_ASC_NODE = 25.0460
ARG_OF_PERICENTER = 85.0770
MEAN_ANOMALY   = 287.3870

EPHEMERIS_TYPE = 0
CLASSIFICATION_TYPE = U
NORAD_CAT_ID   = 68023
ELEMENT_SET_NO = 999
REV_AT_EPOCH   = 364
BSTAR          = -.6696941E-2
MEAN_MOTION_DOT = -.144888E-1
MEAN_MOTION_DDOT = 0

CCSDS_OMM_VERS = 2.0
CREATION_DATE  = 
ORIGINATOR     = 

OBJECT_NAME    = STARLINK-36891
OBJECT_ID      = 2026-040K
CENTER_NAME    = EARTH
REF_FRAME      = TEME
TIME_SYSTEM    = UTC
MEAN_ELEMENT_THEORY = SGP/SGP4

EPOCH          = 2026-03-17T06:00:02.000160
MEAN_MOTION    = 15.86287144
ECCENTRICITY   = .00012934
INCLINATION    = 97.2702
RA_OF_ASC_NODE = 25.0484
ARG_OF_PERICENTER = 95.4079
MEAN_ANOMALY   = 281.8433

EPHEMERIS_TYPE = 0
CLASSIFICATION_TYPE = U
NORAD_CAT_ID   = 68024
ELEMENT_SET_NO = 999
REV_AT_EPOCH   = 364
BSTAR          = -.67058585E-2
MEAN_MOTION_DOT = -.144545E-1
MEAN_MOTION_DDOT = 0

